STARLINK-34793          
1 65064U 25165J   26188.45355318  .00005509  00000+0  38534-3 0  9993
2 65064  97.2835 263.5561 0001118  89.9537 270.1818 15.05657123 52815
STARLINK-34806          
1 65065U 25165K   26188.42861918  .00006776  00000+0  47292-3 0  9997
2 65065  97.2844 263.4382 0001619 144.1686 215.9651 15.05663154 52803
STARLINK-34739          
1 65066U 25165L   26187.71143566  .00005318  00000+0  37218-3 0  9999
2 65066  97.2819 262.8822 0001234 110.1647 249.9713 15.05651940 52706
STARLINK-34802          
1 65067U 25165M   26188.20987661  .00010892  00000+0  75755-3 0  9998
2 65067  97.2824 263.2749 0001269  77.1771 282.9598 15.05657224 52770
STARLINK-34810          
1 65068U 25165N   26188.15172449  .00009129  00000+0  63590-3 0  9998
2 65068  97.2842 263.2031 0001075  93.0368 267.0983 15.05647052 52768
STARLINK-34809          
1 65069U 25165P   26188.14619314  .00011573  00000+0  80474-3 0  9991
2 65069  97.2834 263.2085 0001830 126.4822 233.6574 15.05648207 52762
STARLINK-34794          
1 65070U 25165Q   26187.69480977  .00003816  00000+0  26822-3 0  9991
2 65070  97.2841 262.7504 0001105  89.2042 270.9312 15.05656882 52691
STARLINK-34805          
1 65071U 25165R   26187.68927721  .00007554  00000+0  52700-3 0  9991
2 65071  97.2831 262.7596 0000785  76.8996 283.2319 15.05645847 52698
STARLINK-34735          
1 65072U 25165S   26188.19324597  .00003658  00000+0  25719-3 0  9992
2 65072  97.2829 263.2992 0001873 100.2455 259.8984 15.05665899 52778
STARLINK-34781          
1 65073U 25165T   26188.16834032  .00005154  00000+0  36100-3 0  9999
2 65073  97.2831 263.3331 0001679 155.9244 204.2062 15.05638126 52771
STARLINK-34780          
1 65074U 25165U   26188.14893731  .00001293  00000+0  93496-4 0  9991
2 65074  97.2844 263.2076 0001897 134.2854 225.8530 15.05655272 52769
STARLINK-34771          
1 65078U 25167A   26188.00381119  .00013608  00000+0  47104-3 0  9991
2 65078  53.1590 189.9318 0000943  98.8395 261.2713 15.30178035 51784
STARLINK-34634          
1 65079U 25167B   26188.37473682  .00023962  00000+0  71817-3 0  9991
2 65079  53.1575 186.5688 0001192 109.6906 250.4226 15.34395670 51865
STARLINK-34267          
1 65080U 25167C   26187.39978759  .00013941  00000+0  42367-3 0  9993
2 65080  53.1585 191.1453 0001230  97.5336 262.5807 15.34347826 52933
STARLINK-34561          
1 65081U 25167D   26187.73516304  .00018331  00000+0  63008-3 0  9999
2 65081  53.1593 191.0981 0000946  83.2600 276.8509 15.30169595 52991
STARLINK-34626          
1 65082U 25167E   26188.37845661  .00022280  00000+0  66860-3 0  9999
2 65082  53.1582 185.1907 0001245 107.6876 252.4263 15.34399352 51885
STARLINK-34247          
1 65083U 25167F   26188.40203586  .00014910  00000+0  51463-3 0  9992
2 65083  53.1589 188.1513 0001481  49.1855 310.9274 15.30193520 51841
STARLINK-34601          
1 65084U 25167G   26188.37634426  .00015355  00000+0  46486-3 0  9993
2 65084  53.1589 185.0926 0001085  97.1818 262.9308 15.34386891 51874
STARLINK-34822          
1 65086U 25167J   26188.01286480  .00014613  00000+0  50464-3 0  9996
2 65086  53.1582 192.7796 0001312  65.4738 294.6399 15.30192280 51742
STARLINK-34686          
1 65087U 25167K   26188.40161421  .00014457  00000+0  49944-3 0  9994
2 65087  53.1584 190.9399 0001116  80.4975 279.6151 15.30188989 51803
STARLINK-34594          
1 65088U 25167L   26188.00655137  .00011885  00000+0  41278-3 0  9997
2 65088  53.1590 192.7405 0001969  84.2014 275.9211 15.30199758 51746
STARLINK-34665          
1 65089U 25167M   26188.00339326  .00010784  00000+0  37602-3 0  9990
2 65089  53.1590 192.7195 0001254  88.5659 271.5485 15.30172860 51742
STARLINK-34673          
1 65090U 25167N   26188.39212135  .00012638  00000+0  43827-3 0  9998
2 65090  53.1590 190.8795 0000684  12.3197 347.7820 15.30186595 51803
STARLINK-34648          
1 65091U 25167P   26188.38055575  .00012986  00000+0  39512-3 0  9993
2 65091  53.1596 185.1195 0001200 106.1212 253.9923 15.34373510 51885
STARLINK-34640          
1 65092U 25167Q   26188.38789677  .00012903  00000+0  44723-3 0  9990
2 65092  53.1580 190.8510 0001223  98.9783 261.1356 15.30185018 51802
STARLINK-34266          
1 65093U 25167R   26188.36999845  .00018414  00000+0  55457-3 0  9998
2 65093  53.1594 185.0533 0000848 158.3800 201.7239 15.34411653 51881
STARLINK-34769          
1 65094U 25167S   26188.38896130  .00013712  00000+0  41597-3 0  9990
2 65094  53.1596 185.1700 0000735 107.8371 252.2712 15.34417723 51878
STARLINK-34768          
1 65095U 25167T   26187.99604653  .00019557  00000+0  58887-3 0  9997
2 65095  53.1587 186.9843 0001066  93.6521 266.4603 15.34376470 51827
STARLINK-34759          
1 65096U 25167U   26188.38475912  .00014195  00000+0  43065-3 0  9991
2 65096  53.1591 185.1425 0001012 111.7416 248.3694 15.34385981 51888
STARLINK-34741          
1 65097U 25167V   26188.38265485  .00015573  00000+0  47126-3 0  9997
2 65097  53.1584 185.1295 0000869  97.7031 262.4070 15.34387087 51885
