OBJECT_NAME,OBJECT_ID,EPOCH,MEAN_MOTION,ECCENTRICITY,INCLINATION,RA_OF_ASC_NODE,ARG_OF_PERICENTER,MEAN_ANOMALY,EPHEMERIS_TYPE,CLASSIFICATION_TYPE,NORAD_CAT_ID,ELEMENT_SET_NO,REV_AT_EPOCH,BSTAR,MEAN_MOTION_DOT,MEAN_MOTION_DDOT
STARLINK-34793,2025-165J,2026-07-07T10:53:06.994752,15.05657123,.0001118,97.2835,263.5561,89.9537,270.1818,0,U,65064,999,5281,.38534E-3,.5509E-4,0
STARLINK-34806,2025-165K,2026-07-07T10:17:12.697152,15.05663154,.0001619,97.2844,263.4382,144.1686,215.9651,0,U,65065,999,5280,.47292E-3,.6776E-4,0
STARLINK-34739,2025-165L,2026-07-06T17:04:28.041024,15.05651940,.0001234,97.2819,262.8822,110.1647,249.9713,0,U,65066,999,5270,.37218E-3,.5318E-4,0
STARLINK-34802,2025-165M,2026-07-07T05:02:13.339104,15.05657224,.0001269,97.2824,263.2749,77.1771,282.9598,0,U,65067,999,5277,.75755E-3,.10892E-3,0
STARLINK-34810,2025-165N,2026-07-07T03:38:28.995936,15.05647052,.0001075,97.2842,263.2031,93.0368,267.0983,0,U,65068,999,5276,.6359E-3,.9129E-4,0
STARLINK-34809,2025-165P,2026-07-07T03:30:31.087296,15.05648207,.000183,97.2834,263.2085,126.4822,233.6574,0,U,65069,999,5276,.80474E-3,.11573E-3,0
STARLINK-34794,2025-165Q,2026-07-06T16:40:31.564128,15.05656882,.0001105,97.2841,262.7504,89.2042,270.9312,0,U,65070,999,5269,.26822E-3,.3816E-4,0
STARLINK-34805,2025-165R,2026-07-06T16:32:33.550944,15.05645847,.0000785,97.2831,262.7596,76.8996,283.2319,0,U,65071,999,5269,.527E-3,.7554E-4,0
STARLINK-34735,2025-165S,2026-07-07T04:38:16.451808,15.05665899,.0001873,97.2829,263.2992,100.2455,259.8984,0,U,65072,999,5277,.25719E-3,.3658E-4,0
STARLINK-34781,2025-165T,2026-07-07T04:02:24.603648,15.05638126,.0001679,97.2831,263.3331,155.9244,204.2062,0,U,65073,999,5277,.361E-3,.5154E-4,0
STARLINK-34780,2025-165U,2026-07-07T03:34:28.183584,15.05655272,.0001897,97.2844,263.2076,134.2854,225.8530,0,U,65074,999,5276,.93496E-4,.1293E-4,0
STARLINK-34771,2025-167A,2026-07-07T00:05:29.286816,15.30178035,.0000943,53.1590,189.9318,98.8395,261.2713,0,U,65078,999,5178,.47104E-3,.13608E-3,0
STARLINK-34634,2025-167B,2026-07-07T08:59:37.261248,15.34395670,.0001192,53.1575,186.5688,109.6906,250.4226,0,U,65079,999,5186,.71817E-3,.23962E-3,0
STARLINK-34267,2025-167C,2026-07-06T09:35:41.647776,15.34347826,.00012308,53.1585,191.1453,97.5336,262.5807,0,U,65080,999,5293,.42366739E-3,.13941E-3,0
STARLINK-34561,2025-167D,2026-07-06T17:38:38.086656,15.30169595,.0000946,53.1593,191.0981,83.2600,276.8509,0,U,65081,999,5299,.63008E-3,.18331E-3,0
STARLINK-34626,2025-167E,2026-07-07T09:04:58.651104,15.34399352,.0001245,53.1582,185.1907,107.6876,252.4263,0,U,65082,999,5188,.6686E-3,.2228E-3,0
STARLINK-34247,2025-167F,2026-07-07T09:38:55.898304,15.30193520,.0001481,53.1589,188.1513,49.1855,310.9274,0,U,65083,999,5184,.51463E-3,.1491E-3,0
STARLINK-34601,2025-167G,2026-07-07T09:01:56.144064,15.34386891,.0001085,53.1589,185.0926,97.1818,262.9308,0,U,65084,999,5187,.46486E-3,.15355E-3,0
STARLINK-34822,2025-167J,2026-07-07T00:18:31.518720,15.30192280,.0001312,53.1582,192.7796,65.4738,294.6399,0,U,65086,999,5174,.50464E-3,.14613E-3,0
STARLINK-34686,2025-167K,2026-07-07T09:38:19.467744,15.30188989,.0001116,53.1584,190.9399,80.4975,279.6151,0,U,65087,999,5180,.49944E-3,.14457E-3,0
STARLINK-34594,2025-167L,2026-07-07T00:09:26.038368,15.30199758,.0001969,53.1590,192.7405,84.2014,275.9211,0,U,65088,999,5174,.41278E-3,.11885E-3,0
STARLINK-34665,2025-167M,2026-07-07T00:04:53.177664,15.30172860,.0001254,53.1590,192.7195,88.5659,271.5485,0,U,65089,999,5174,.37602E-3,.10784E-3,0
STARLINK-34673,2025-167N,2026-07-07T09:24:39.284640,15.30186595,.0000684,53.1590,190.8795,12.3197,347.7820,0,U,65090,999,5180,.43827E-3,.12638E-3,0
STARLINK-34648,2025-167P,2026-07-07T09:08:00.016800,15.34373510,.00012,53.1596,185.1195,106.1212,253.9923,0,U,65091,999,5188,.39512E-3,.12986E-3,0
STARLINK-34640,2025-167Q,2026-07-07T09:18:34.280928,15.30185018,.0001223,53.1580,190.8510,98.9783,261.1356,0,U,65092,999,5180,.44723E-3,.12903E-3,0
STARLINK-34266,2025-167R,2026-07-07T08:52:47.866080,15.34411653,.0000848,53.1594,185.0533,158.3800,201.7239,0,U,65093,999,5188,.55457E-3,.18414E-3,0
STARLINK-34769,2025-167S,2026-07-07T09:20:06.256320,15.34417723,.0000735,53.1596,185.1700,107.8371,252.2712,0,U,65094,999,5187,.41597E-3,.13712E-3,0
STARLINK-34768,2025-167T,2026-07-06T23:54:18.420192,15.34376470,.0001066,53.1587,186.9843,93.6521,266.4603,0,U,65095,999,5182,.58887E-3,.19557E-3,0
STARLINK-34759,2025-167U,2026-07-07T09:14:03.187968,15.34385981,.0001012,53.1591,185.1425,111.7416,248.3694,0,U,65096,999,5188,.43065E-3,.14195E-3,0
STARLINK-34741,2025-167V,2026-07-07T09:11:01.379040,15.34387087,.0000869,53.1584,185.1295,97.7031,262.4070,0,U,65097,999,5188,.47126E-3,.15573E-3,0
